{"fetched_at":"2026-03-30T06:02:59Z","count":15439,"tles":[{"name":"STARLINK-31162","line1":"1 58791U 24012E   26087.95103815 -.00001786  00000+0 -55392-4 0  9995","line2":"2 58791  43.0031  56.3166 0000737 293.9938  66.0837 15.27591010124187","category":"Starlink"}]}