{
  "norad_id": 58791,
  "name": "STARLINK-31162",
  "history": [
    {
      "epoch": "2026-03-28T22:49:29.696160",
      "apogee_km": 483.52179532239643,
      "perigee_km": 482.51046135127945,
      "latitude_deg": -32.81214940644642,
      "longitude_deg": 150.39966240013018,
      "semi_major_axis_km": 6861.153128336838,
      "eccentricity": 7.37e-05,
      "inclination_deg": 43.0031,
      "raan_deg": 56.3166,
      "arg_perigee_deg": 293.9938,
      "mean_anomaly_deg": 66.0837,
      "mean_motion_rev_day": 15.2759101
    }
  ]
}